STARLINK-32692          
1 62422U 24249P   26162.27219132  .00009624  00000+0  35903-3 0  9994
2 62422  42.9858 153.5297 0001893 268.8854  91.1781 15.27556844 82035
STARLINK-32680          
1 62423U 24249Q   26162.27044241  .00004487  00000+0  17247-3 0  9995
2 62423  43.0016 145.7527 0001311 270.3315  89.7386 15.27579490 82124
STARLINK-32638          
1 62424U 24249R   26162.28584033  .00013248  00000+0  48990-3 0  9999
2 62424  42.9878 157.1184 0001073 146.1173 213.9747 15.27592100 81991
STARLINK-32283          
1 62425U 24249S   26162.25036519  .00023089  00000+0  84537-3 0  9999
2 62425  43.0001 142.1313 0003724 289.1991  70.8458 15.27597625 82167
STARLINK-32676          
1 62426U 24249T   26162.22946957  .00021343  00000+0  78248-3 0  9996
2 62426  43.0024 146.3003 0000368 162.1456 197.9409 15.27596743 82114
STARLINK-32659          
1 62427U 24249U   26160.71144780  .00013967  00000+0  51598-3 0  9995
2 62427  43.0054 154.6899 0002144 268.4613  91.5994 15.27588725 81884
STARLINK-32614          
1 62428U 24249V   26162.26833941  .00015115  00000+0  55742-3 0  9994
2 62428  43.0037 153.5157 0000436 233.8374 126.2437 15.27595635 82037
STARLINK-32418          
1 62429U 24249W   26162.25373356  .00021168  00000+0  77616-3 0  9992
2 62429  42.9971 145.6157 0001085 129.0431 231.0517 15.27596731 82128
RESURS-P 5              
1 62430U 24250A   26162.22530504  .00002456  00000+0  81807-4 0  9990
2 62430  97.2790  87.6603 0001178 127.0303 233.1046 15.32054422 81639
STARLINK-32702          
1 62432U 24251A   26161.99146422  .00027454  00000+0  93558-3 0  9998
2 62432  53.1607 259.0654 0001364  91.7939 268.3218 15.30202332 82274
STARLINK-32712          
1 62433U 24251B   26162.00476613  .00018249  00000+0  62638-3 0  9997
2 62433  53.1606 261.9844 0001053 111.8333 248.2780 15.30218831 82232
STARLINK-32674          
1 62434U 24251C   26161.57489147  .00007912  00000+0  27894-3 0  9995
2 62434  53.1585 263.5812 0001485 115.3909 244.7246 15.30203533 82173
STARLINK-32711          
1 62435U 24251D   26162.00161091  .00017609  00000+0  60538-3 0  9996
2 62435  53.1613 261.9681 0001710  87.4375 272.6821 15.30192379 82230
STARLINK-32697          
1 62436U 24251E   26161.59704917  .00024720  00000+0  84378-3 0  9990
2 62436  53.1596 263.7104 0000974  89.9133 270.1979 15.30207109 82179
STARLINK-32693          
1 62437U 24251F   26161.55535548  .00021837  00000+0  74683-3 0  9993
2 62437  53.1582 261.2487 0000950  66.0183 294.0917 15.30218252 82209
STARLINK-32721          
1 62438U 24251G   26161.98155432  .00013615  00000+0  47100-3 0  9990
2 62438  53.1582 261.8392 0001091  79.2803 280.8321 15.30196962 82174
STARLINK-32709          
1 62439U 24251H   26162.01180209  .00012048  00000+0  37696-3 0  9994
2 62439  53.1595 262.0327 0001630  91.9340 268.1849 15.33557046 82234
STARLINK-32689          
1 62440U 24251J   26161.57066724  .00018542  00000+0  63638-3 0  9991
2 62440  53.1583 263.5443 0001160  86.5535 273.5598 15.30210795 82170
STARLINK-32724          
1 62441U 24251K   26161.98366363  .00026146  00000+0  89169-3 0  9995
2 62441  53.1591 261.8575 0000985  88.0895 272.0219 15.30203976 82073
STARLINK-32291          
1 62442U 24251L   26161.99210386  .00022267  00000+0  76164-3 0  9991
2 62442  53.1611 261.9067 0001136  77.5978 282.5150 15.30201275 81921
STARLINK-32736          
1 62443U 24251M   26161.99949311  .00019106  00000+0  65548-3 0  9991
2 62443  53.1591 261.9566 0001325  83.8921 276.2231 15.30202763 82071
STARLINK-32737          
1 62444U 24251N   26161.97785684  .00022169  00000+0  75839-3 0  9998
2 62444  53.1595 259.6872 0000917  84.1580 275.9526 15.30199072 82263
STARLINK-32683          
1 62445U 24251P   26162.25002315  .00044821  00000+0  13300-2 0  9997
2 62445  53.1597 260.7575 0001605  94.1404 221.9480 15.34393900  5872
STARLINK-32726          
1 62446U 24251Q   26161.98260940  .00013387  00000+0  46332-3 0  9992
2 62446  53.1579 261.8456 0001032  87.6357 272.4762 15.30197539 81921
STARLINK-32719          
1 62448U 24251S   26161.58025338  .00010592  00000+0  36912-3 0  9998
2 62448  53.1580 264.1719 0001345 102.6433 257.4718 15.30209783 81999
STARLINK-32723          
1 62449U 24251T   26161.98472088  .00008937  00000+0  31354-3 0  9996
2 62449  53.1592 261.8603 0000907  80.2414 279.8689 15.30195576 82071
STARLINK-32722          
1 62450U 24251U   26161.97944556  .00020691  00000+0  70884-3 0  9993
2 62450  53.1594 261.8254 0001562  83.4424 276.6755 15.30195878 81861
STARLINK-32720          
1 62451U 24251V   26162.25002315  .00049111  00000+0  14553-2 0  9992
2 62451  53.1606 260.8299 0001584  90.5866 190.6105 15.34396647  5868
STARLINK-32656          
1 62452U 24251W   26162.00584584  .00002239  00000+0  77376-4 0  9993
2 62452  53.1606 261.9945 0001123  62.4076 297.7040 15.34398161 82077
STARLINK-32690          
1 62453U 24251X   26161.97627273  .00032359  00000+0  10978-2 0  9991
2 62453  53.1578 261.8088 0001480  89.5636 270.5535 15.30263880 81859
