OBJECT_NAME,OBJECT_ID,EPOCH,MEAN_MOTION,ECCENTRICITY,INCLINATION,RA_OF_ASC_NODE,ARG_OF_PERICENTER,MEAN_ANOMALY,EPHEMERIS_TYPE,CLASSIFICATION_TYPE,NORAD_CAT_ID,ELEMENT_SET_NO,REV_AT_EPOCH,BSTAR,MEAN_MOTION_DOT,MEAN_MOTION_DDOT
STARLINK-32692,2024-249P,2026-06-11T06:31:57.330048,15.27556844,.00018931,42.9858,153.5297,268.8854,91.1781,0,U,62422,999,8203,.35903184E-3,.9624E-4,0
STARLINK-32680,2024-249Q,2026-06-11T06:29:26.224224,15.27579490,.00013112,43.0016,145.7527,270.3315,89.7386,0,U,62423,999,8212,.17246507E-3,.4487E-4,0
STARLINK-32638,2024-249R,2026-06-11T06:51:36.604512,15.27592100,.00010732,42.9878,157.1184,146.1173,213.9747,0,U,62424,999,8199,.48989987E-3,.13248E-3,0
STARLINK-32283,2024-249S,2026-06-11T06:00:31.552416,15.27597625,.00037241,43.0001,142.1313,289.1991,70.8458,0,U,62425,999,8216,.84537394E-3,.23089E-3,0
STARLINK-32676,2024-249T,2026-06-11T05:30:26.170848,15.27596743,.00003689,43.0024,146.3003,162.1456,197.9409,0,U,62426,999,8211,.78247735E-3,.21343E-3,0
STARLINK-32659,2024-249U,2026-06-09T17:04:29.089920,15.27588725,.0002144,43.0054,154.6899,268.4613,91.5994,0,U,62427,999,8188,.51598128E-3,.13967E-3,0
STARLINK-32614,2024-249V,2026-06-11T06:26:24.525024,15.27595635,.00004365,43.0037,153.5157,233.8374,126.2437,0,U,62428,999,8203,.55741512E-3,.15115E-3,0
STARLINK-32418,2024-249W,2026-06-11T06:05:22.579584,15.27596731,.00010857,42.9971,145.6157,129.0431,231.0517,0,U,62429,999,8212,.77616464E-3,.21168E-3,0
RESURS-P 5,2024-250A,2026-06-11T05:24:26.355456,15.32054422,.00011781,97.2790,87.6603,127.0303,233.1046,0,U,62430,999,8163,.81806711E-4,.2456E-4,0
STARLINK-32702,2024-251A,2026-06-10T23:47:42.508608,15.30202332,.0001364,53.1607,259.0654,91.7939,268.3218,0,U,62432,999,8227,.93557706E-3,.27454E-3,0
STARLINK-32712,2024-251B,2026-06-11T00:06:51.793632,15.30218831,.00010534,53.1606,261.9844,111.8333,248.2780,0,U,62433,999,8223,.62637876E-3,.18249E-3,0
STARLINK-32674,2024-251C,2026-06-10T13:47:50.623008,15.30203533,.00014855,53.1585,263.5812,115.3909,244.7246,0,U,62434,999,8217,.27893645E-3,.7912E-4,0
STARLINK-32711,2024-251D,2026-06-11T00:02:19.182624,15.30192379,.00017108,53.1613,261.9681,87.4375,272.6821,0,U,62435,999,8223,.6053841E-3,.17609E-3,0
STARLINK-32697,2024-251E,2026-06-10T14:19:45.048288,15.30207109,.00009743,53.1596,263.7104,89.9133,270.1979,0,U,62436,999,8217,.84378229E-3,.2472E-3,0
STARLINK-32693,2024-251F,2026-06-10T13:19:42.713472,15.30218252,.000095,53.1582,261.2487,66.0183,294.0917,0,U,62437,999,8220,.74683305E-3,.21837E-3,0
STARLINK-32721,2024-251G,2026-06-10T23:33:26.293248,15.30196962,.0001091,53.1582,261.8392,79.2803,280.8321,0,U,62438,999,8217,.47099526E-3,.13615E-3,0
STARLINK-32709,2024-251H,2026-06-11T00:16:59.700576,15.33557046,.00016302,53.1595,262.0327,91.9340,268.1849,0,U,62439,999,8223,.37696099E-3,.12048E-3,0
STARLINK-32689,2024-251J,2026-06-10T13:41:45.649536,15.30210795,.00011603,53.1583,263.5443,86.5535,273.5598,0,U,62440,999,8217,.63637774E-3,.18542E-3,0
STARLINK-32724,2024-251K,2026-06-10T23:36:28.537632,15.30203976,.0000985,53.1591,261.8575,88.0895,272.0219,0,U,62441,999,8207,.89169363E-3,.26146E-3,0
STARLINK-32291,2024-251L,2026-06-10T23:48:37.773504,15.30201275,.00011363,53.1611,261.9067,77.5978,282.5150,0,U,62442,999,8192,.76163646E-3,.22267E-3,0
STARLINK-32736,2024-251M,2026-06-10T23:59:16.204704,15.30202763,.00013259,53.1591,261.9566,83.8921,276.2231,0,U,62443,999,8207,.65547893E-3,.19106E-3,0
STARLINK-32737,2024-251N,2026-06-10T23:28:06.830976,15.30199072,.00009174,53.1595,259.6872,84.1580,275.9526,0,U,62444,999,8226,.75839405E-3,.22169E-3,0
STARLINK-32683,2024-251P,2026-06-11T06:00:02.000160,15.34393900,.00016057,53.1597,260.7575,94.1404,221.9480,0,U,62445,999,587,.13300128E-2,.44821E-3,0
STARLINK-32726,2024-251Q,2026-06-10T23:34:57.452160,15.30197539,.00010328,53.1579,261.8456,87.6357,272.4762,0,U,62446,999,8192,.46331537E-3,.13387E-3,0
STARLINK-32719,2024-251S,2026-06-10T13:55:33.892032,15.30209783,.00013459,53.1580,264.1719,102.6433,257.4718,0,U,62448,999,8199,.36912211E-3,.10592E-3,0
STARLINK-32723,2024-251T,2026-06-10T23:37:59.884032,15.30195576,.0000907,53.1592,261.8603,80.2414,279.8689,0,U,62449,999,8207,.31353612E-3,.8937E-4,0
STARLINK-32722,2024-251U,2026-06-10T23:30:24.096384,15.30195878,.00015623,53.1594,261.8254,83.4424,276.6755,0,U,62450,999,8186,.70884375E-3,.20691E-3,0
STARLINK-32720,2024-251V,2026-06-11T06:00:02.000160,15.34396647,.00015843,53.1606,260.8299,90.5866,190.6105,0,U,62451,999,586,.14553074E-2,.49111E-3,0
STARLINK-32656,2024-251W,2026-06-11T00:08:25.080576,15.34398161,.00011236,53.1606,261.9945,62.4076,297.7040,0,U,62452,999,8207,.7737646E-4,.2239E-4,0
STARLINK-32690,2024-251X,2026-06-10T23:25:49.963872,15.30263880,.00014808,53.1578,261.8088,89.5636,270.5535,0,U,62453,999,8185,.10977551E-2,.32359E-3,0
